ORBCOMM FM37            
1 33064U 08031E   24148.34290262  .00002171  00000+0  33716-3 0  9998
2 33064  48.4414  13.5427 0005973 168.2911   2.9724 14.76560086857284
ORBCOMM FM40            
1 33065U 08031F   24148.05111167  .00002815  00000+0  41541-3 0  9993
2 33065  48.4434   4.1358 0007357 175.7950 342.2373 14.77907238857409
VESSELSAT 1             
1 37840U 11058C   24148.54265374  .00000416  00000+0  82657-4 0  9994
2 37840  19.9623 267.0838 0013555 265.2616  94.6240 14.11160317651995
ORBCOMM FM109           
1 40086U 14040A   24147.96899949  .00001497  00000+0  36920-3 0  9991
2 40086  47.0041  38.3513 0002142 327.8009  32.2745 14.56678731524728
ORBCOMM FM107           
1 40087U 14040B   24147.79735965  .00001476  00000+0  36452-3 0  9997
2 40087  47.0058  40.1273 0001877 296.9798  63.0895 14.56689301524819
ORBCOMM FM106           
1 40088U 14040C   24148.42249824  .00001523  00000+0  30046-3 0  9999
2 40088  47.0597 249.0636 0016757  75.3675 284.9072 14.67125723526994
ORBCOMM FM111           
1 40089U 14040D   24147.94599034  .00002503  00000+0  33625-3 0  9992
2 40089  47.0020 150.4067 0032106 148.7690 211.5121 14.81913033532855
ORBCOMM FM104           
1 40090U 14040E   24148.19692465  .00000966  00000+0  25940-3 0  9996
2 40090  47.0060  67.3421 0017451 243.4692 116.4403 14.55184875524472
