<?xml version="1.0" encoding="UTF-8"?>
<ndm xmlns:xsi="http://www.w3.org/2001/XMLSchema-instance" xsi:noNamespaceSchemaLocation="https://sanaregistry.org/r/ndmxml_unqualified/ndmxml-2.0.0-master-2.0.xsd">
<omm id="CCSDS_OMM_VERS" version="2.0">
<header><CREATION_DATE/><ORIGINATOR/></header><body><segment><metadata><OBJECT_NAME>ORBCOMM FM37</OBJECT_NAME><OBJECT_ID>2008-031E</OBJECT_ID><CENTER_NAME>EARTH</CENTER_NAME><REF_FRAME>TEME</REF_FRAME><TIME_SYSTEM>UTC</TIME_SYSTEM><MEAN_ELEMENT_THEORY>SGP4</MEAN_ELEMENT_THEORY></metadata><data><meanElements><EPOCH>2024-05-27T08:13:46.786368</EPOCH><MEAN_MOTION>14.76560086</MEAN_MOTION><ECCENTRICITY>.0005973</ECCENTRICITY><INCLINATION>48.4414</INCLINATION><RA_OF_ASC_NODE>13.5427</RA_OF_ASC_NODE><ARG_OF_PERICENTER>168.2911</ARG_OF_PERICENTER><MEAN_ANOMALY>2.9724</MEAN_ANOMALY></meanElements><tleParameters><EPHEMERIS_TYPE>0</EPHEMERIS_TYPE><CLASSIFICATION_TYPE>U</CLASSIFICATION_TYPE><NORAD_CAT_ID>33064</NORAD_CAT_ID><ELEMENT_SET_NO>999</ELEMENT_SET_NO><REV_AT_EPOCH>85728</REV_AT_EPOCH><BSTAR>.33716E-3</BSTAR><MEAN_MOTION_DOT>.2171E-4</MEAN_MOTION_DOT><MEAN_MOTION_DDOT>0</MEAN_MOTION_DDOT></tleParameters></data></segment></body></omm>
<omm id="CCSDS_OMM_VERS" version="2.0">
<header><CREATION_DATE/><ORIGINATOR/></header><body><segment><metadata><OBJECT_NAME>ORBCOMM FM40</OBJECT_NAME><OBJECT_ID>2008-031F</OBJECT_ID><CENTER_NAME>EARTH</CENTER_NAME><REF_FRAME>TEME</REF_FRAME><TIME_SYSTEM>UTC</TIME_SYSTEM><MEAN_ELEMENT_THEORY>SGP4</MEAN_ELEMENT_THEORY></metadata><data><meanElements><EPOCH>2024-05-27T01:13:36.048288</EPOCH><MEAN_MOTION>14.77907238</MEAN_MOTION><ECCENTRICITY>.0007357</ECCENTRICITY><INCLINATION>48.4434</INCLINATION><RA_OF_ASC_NODE>4.1358</RA_OF_ASC_NODE><ARG_OF_PERICENTER>175.7950</ARG_OF_PERICENTER><MEAN_ANOMALY>342.2373</MEAN_ANOMALY></meanElements><tleParameters><EPHEMERIS_TYPE>0</EPHEMERIS_TYPE><CLASSIFICATION_TYPE>U</CLASSIFICATION_TYPE><NORAD_CAT_ID>33065</NORAD_CAT_ID><ELEMENT_SET_NO>999</ELEMENT_SET_NO><REV_AT_EPOCH>85740</REV_AT_EPOCH><BSTAR>.41541E-3</BSTAR><MEAN_MOTION_DOT>.2815E-4</MEAN_MOTION_DOT><MEAN_MOTION_DDOT>0</MEAN_MOTION_DDOT></tleParameters></data></segment></body></omm>
<omm id="CCSDS_OMM_VERS" version="2.0">
<header><CREATION_DATE/><ORIGINATOR/></header><body><segment><metadata><OBJECT_NAME>VESSELSAT 1</OBJECT_NAME><OBJECT_ID>2011-058C</OBJECT_ID><CENTER_NAME>EARTH</CENTER_NAME><REF_FRAME>TEME</REF_FRAME><TIME_SYSTEM>UTC</TIME_SYSTEM><MEAN_ELEMENT_THEORY>SGP4</MEAN_ELEMENT_THEORY></metadata><data><meanElements><EPOCH>2024-05-27T13:01:25.283136</EPOCH><MEAN_MOTION>14.11160317</MEAN_MOTION><ECCENTRICITY>.0013555</ECCENTRICITY><INCLINATION>19.9623</INCLINATION><RA_OF_ASC_NODE>267.0838</RA_OF_ASC_NODE><ARG_OF_PERICENTER>265.2616</ARG_OF_PERICENTER><MEAN_ANOMALY>94.6240</MEAN_ANOMALY></meanElements><tleParameters><EPHEMERIS_TYPE>0</EPHEMERIS_TYPE><CLASSIFICATION_TYPE>U</CLASSIFICATION_TYPE><NORAD_CAT_ID>37840</NORAD_CAT_ID><ELEMENT_SET_NO>999</ELEMENT_SET_NO><REV_AT_EPOCH>65199</REV_AT_EPOCH><BSTAR>.82657E-4</BSTAR><MEAN_MOTION_DOT>.416E-5</MEAN_MOTION_DOT><MEAN_MOTION_DDOT>0</MEAN_MOTION_DDOT></tleParameters></data></segment></body></omm>
<omm id="CCSDS_OMM_VERS" version="2.0">
<header><CREATION_DATE/><ORIGINATOR/></header><body><segment><metadata><OBJECT_NAME>ORBCOMM FM109</OBJECT_NAME><OBJECT_ID>2014-040A</OBJECT_ID><CENTER_NAME>EARTH</CENTER_NAME><REF_FRAME>TEME</REF_FRAME><TIME_SYSTEM>UTC</TIME_SYSTEM><MEAN_ELEMENT_THEORY>SGP4</MEAN_ELEMENT_THEORY></metadata><data><meanElements><EPOCH>2024-05-26T23:15:21.555936</EPOCH><MEAN_MOTION>14.56678731</MEAN_MOTION><ECCENTRICITY>.0002142</ECCENTRICITY><INCLINATION>47.0041</INCLINATION><RA_OF_ASC_NODE>38.3513</RA_OF_ASC_NODE><ARG_OF_PERICENTER>327.8009</ARG_OF_PERICENTER><MEAN_ANOMALY>32.2745</MEAN_ANOMALY></meanElements><tleParameters><EPHEMERIS_TYPE>0</EPHEMERIS_TYPE><CLASSIFICATION_TYPE>U</CLASSIFICATION_TYPE><NORAD_CAT_ID>40086</NORAD_CAT_ID><ELEMENT_SET_NO>999</ELEMENT_SET_NO><REV_AT_EPOCH>52472</REV_AT_EPOCH><BSTAR>.3692E-3</BSTAR><MEAN_MOTION_DOT>.1497E-4</MEAN_MOTION_DOT><MEAN_MOTION_DDOT>0</MEAN_MOTION_DDOT></tleParameters></data></segment></body></omm>
<omm id="CCSDS_OMM_VERS" version="2.0">
<header><CREATION_DATE/><ORIGINATOR/></header><body><segment><metadata><OBJECT_NAME>ORBCOMM FM107</OBJECT_NAME><OBJECT_ID>2014-040B</OBJECT_ID><CENTER_NAME>EARTH</CENTER_NAME><REF_FRAME>TEME</REF_FRAME><TIME_SYSTEM>UTC</TIME_SYSTEM><MEAN_ELEMENT_THEORY>SGP4</MEAN_ELEMENT_THEORY></metadata><data><meanElements><EPOCH>2024-05-26T19:08:11.873760</EPOCH><MEAN_MOTION>14.56689301</MEAN_MOTION><ECCENTRICITY>.0001877</ECCENTRICITY><INCLINATION>47.0058</INCLINATION><RA_OF_ASC_NODE>40.1273</RA_OF_ASC_NODE><ARG_OF_PERICENTER>296.9798</ARG_OF_PERICENTER><MEAN_ANOMALY>63.0895</MEAN_ANOMALY></meanElements><tleParameters><EPHEMERIS_TYPE>0</EPHEMERIS_TYPE><CLASSIFICATION_TYPE>U</CLASSIFICATION_TYPE><NORAD_CAT_ID>40087</NORAD_CAT_ID><ELEMENT_SET_NO>999</ELEMENT_SET_NO><REV_AT_EPOCH>52481</REV_AT_EPOCH><BSTAR>.36452E-3</BSTAR><MEAN_MOTION_DOT>.1476E-4</MEAN_MOTION_DOT><MEAN_MOTION_DDOT>0</MEAN_MOTION_DDOT></tleParameters></data></segment></body></omm>
<omm id="CCSDS_OMM_VERS" version="2.0">
<header><CREATION_DATE/><ORIGINATOR/></header><body><segment><metadata><OBJECT_NAME>ORBCOMM FM106</OBJECT_NAME><OBJECT_ID>2014-040C</OBJECT_ID><CENTER_NAME>EARTH</CENTER_NAME><REF_FRAME>TEME</REF_FRAME><TIME_SYSTEM>UTC</TIME_SYSTEM><MEAN_ELEMENT_THEORY>SGP4</MEAN_ELEMENT_THEORY></metadata><data><meanElements><EPOCH>2024-05-27T10:08:23.847936</EPOCH><MEAN_MOTION>14.67125723</MEAN_MOTION><ECCENTRICITY>.0016757</ECCENTRICITY><INCLINATION>47.0597</INCLINATION><RA_OF_ASC_NODE>249.0636</RA_OF_ASC_NODE><ARG_OF_PERICENTER>75.3675</ARG_OF_PERICENTER><MEAN_ANOMALY>284.9072</MEAN_ANOMALY></meanElements><tleParameters><EPHEMERIS_TYPE>0</EPHEMERIS_TYPE><CLASSIFICATION_TYPE>U</CLASSIFICATION_TYPE><NORAD_CAT_ID>40088</NORAD_CAT_ID><ELEMENT_SET_NO>999</ELEMENT_SET_NO><REV_AT_EPOCH>52699</REV_AT_EPOCH><BSTAR>.30046E-3</BSTAR><MEAN_MOTION_DOT>.1523E-4</MEAN_MOTION_DOT><MEAN_MOTION_DDOT>0</MEAN_MOTION_DDOT></tleParameters></data></segment></body></omm>
<omm id="CCSDS_OMM_VERS" version="2.0">
<header><CREATION_DATE/><ORIGINATOR/></header><body><segment><metadata><OBJECT_NAME>ORBCOMM FM111</OBJECT_NAME><OBJECT_ID>2014-040D</OBJECT_ID><CENTER_NAME>EARTH</CENTER_NAME><REF_FRAME>TEME</REF_FRAME><TIME_SYSTEM>UTC</TIME_SYSTEM><MEAN_ELEMENT_THEORY>SGP4</MEAN_ELEMENT_THEORY></metadata><data><meanElements><EPOCH>2024-05-26T22:42:13.565376</EPOCH><MEAN_MOTION>14.81913033</MEAN_MOTION><ECCENTRICITY>.0032106</ECCENTRICITY><INCLINATION>47.0020</INCLINATION><RA_OF_ASC_NODE>150.4067</RA_OF_ASC_NODE><ARG_OF_PERICENTER>148.7690</ARG_OF_PERICENTER><MEAN_ANOMALY>211.5121</MEAN_ANOMALY></meanElements><tleParameters><EPHEMERIS_TYPE>0</EPHEMERIS_TYPE><CLASSIFICATION_TYPE>U</CLASSIFICATION_TYPE><NORAD_CAT_ID>40089</NORAD_CAT_ID><ELEMENT_SET_NO>999</ELEMENT_SET_NO><REV_AT_EPOCH>53285</REV_AT_EPOCH><BSTAR>.33625E-3</BSTAR><MEAN_MOTION_DOT>.2503E-4</MEAN_MOTION_DOT><MEAN_MOTION_DDOT>0</MEAN_MOTION_DDOT></tleParameters></data></segment></body></omm>
<omm id="CCSDS_OMM_VERS" version="2.0">
<header><CREATION_DATE/><ORIGINATOR/></header><body><segment><metadata><OBJECT_NAME>ORBCOMM FM104</OBJECT_NAME><OBJECT_ID>2014-040E</OBJECT_ID><CENTER_NAME>EARTH</CENTER_NAME><REF_FRAME>TEME</REF_FRAME><TIME_SYSTEM>UTC</TIME_SYSTEM><MEAN_ELEMENT_THEORY>SGP4</MEAN_ELEMENT_THEORY></metadata><data><meanElements><EPOCH>2024-05-27T04:43:34.289760</EPOCH><MEAN_MOTION>14.55184875</MEAN_MOTION><ECCENTRICITY>.0017451</ECCENTRICITY><INCLINATION>47.0060</INCLINATION><RA_OF_ASC_NODE>67.3421</RA_OF_ASC_NODE><ARG_OF_PERICENTER>243.4692</ARG_OF_PERICENTER><MEAN_ANOMALY>116.4403</MEAN_ANOMALY></meanElements><tleParameters><EPHEMERIS_TYPE>0</EPHEMERIS_TYPE><CLASSIFICATION_TYPE>U</CLASSIFICATION_TYPE><NORAD_CAT_ID>40090</NORAD_CAT_ID><ELEMENT_SET_NO>999</ELEMENT_SET_NO><REV_AT_EPOCH>52447</REV_AT_EPOCH><BSTAR>.2594E-3</BSTAR><MEAN_MOTION_DOT>.966E-5</MEAN_MOTION_DOT><MEAN_MOTION_DDOT>0</MEAN_MOTION_DDOT></tleParameters></data></segment></body></omm>

</ndm>
